STARLINK-30254          
1 57533U 23115N   26068.45178042 -.00000615  00000+0 -12825-4 0  9993
2 57533  42.9999 104.5001 0001162 262.3501  97.7219 15.27574266145322
FLOCK 4G-10             
1 62670U 25009BP  26068.70827885  .00013952  00000+0  52624-3 0  9995
2 62670  97.3967 150.5883 0003469 341.4844  18.6269 15.27155944121340
